STARLINK-36208          
1 67108U 25299G   26001.91668981 -.01750657  00000+0 -31702-1 0  9992
2 67108  42.9993 193.9390 0001320 271.6246  87.8385 15.52124688  4058
STARLINK-35764          
1 67109U 25299H   26001.91668981 -.01755109  00000+0 -31789-1 0  9995
2 67109  42.9994 193.9352 0001318 276.6173  84.7614 15.52128362  3940
STARLINK-35781          
1 67110U 25299J   26001.91668981 -.01767463  00000+0 -32020-1 0  9992
2 67110  42.9994 193.9243 0001380 267.4834  97.7154 15.52145319  4004
STARLINK-35875          
1 67111U 25299K   26001.91668981 -.01761874  00000+0 -31919-1 0  9999
2 67111  42.9994 193.9301 0001278 272.5820  90.7081 15.52135284  3942
STARLINK-35906          
1 67112U 25299L   26001.91668981 -.01783218  00000+0 -32314-1 0  9996
2 67112  42.9995 193.9199 0001416 270.8964  96.1967 15.52168071  3946
STARLINK-35789          
1 67113U 25299M   26001.91668981 -.01791176  00000+0 -32458-1 0  9998
2 67113  42.9995 193.9148 0001433 273.5352  95.4573 15.52182922  3947
STARLINK-36180          
1 67114U 25299N   26001.91668981 -.01797253  00000+0 -32576-1 0  9992
2 67114  42.9994 193.9101 0001365 269.3257 101.5796 15.52189242  4058
STARLINK-35892          
1 67115U 25299P   26001.91668981 -.01839264  00000+0 -33400-1 0  9999
2 67115  42.9995 193.9053 0001248 274.8297  97.9712 15.52220047  3943
STARLINK-35738          
1 67116U 25299Q   26001.91668981 -.01837697  00000+0 -33366-1 0  9999
2 67116  42.9993 193.9008 0001337 275.3443  99.3705 15.52220770  3941
STARLINK-35674          
1 67117U 25299R   26001.91668981 -.01819015  00000+0 -32984-1 0  9999
2 67117  42.9992 193.8960 0001352 271.8526 104.7720 15.52219948  3849
STARLINK-35701          
1 67118U 25299S   26001.91668981 -.01858744  00000+0 -33772-1 0  9998
2 67118  42.9994 193.8918 0001187 278.5902  99.9384 15.52243801  4008
STARLINK-36179          
1 67119U 25299T   26001.91668981 -.01852679  00000+0 -33590-1 0  9998
2 67119  42.9995 193.8819 0001639 275.2322 107.0759 15.52285997  4056
