CCSDS_OMM_VERS = 2.0
CREATION_DATE  = 
ORIGINATOR     = 

OBJECT_NAME    = STARLINK-36208
OBJECT_ID      = 2025-299G
CENTER_NAME    = EARTH
REF_FRAME      = TEME
TIME_SYSTEM    = UTC
MEAN_ELEMENT_THEORY = SGP/SGP4

EPOCH          = 2026-01-01T22:00:01.999584
MEAN_MOTION    = 15.52124688
ECCENTRICITY   = .00013207
INCLINATION    = 42.9993
RA_OF_ASC_NODE = 193.9390
ARG_OF_PERICENTER = 271.6246
MEAN_ANOMALY   = 87.8385

EPHEMERIS_TYPE = 0
CLASSIFICATION_TYPE = U
NORAD_CAT_ID   = 67108
ELEMENT_SET_NO = 999
REV_AT_EPOCH   = 405
BSTAR          = -.31702389E-1
MEAN_MOTION_DOT = -.1750657E-1
MEAN_MOTION_DDOT = 0

CCSDS_OMM_VERS = 2.0
CREATION_DATE  = 
ORIGINATOR     = 

OBJECT_NAME    = STARLINK-35764
OBJECT_ID      = 2025-299H
CENTER_NAME    = EARTH
REF_FRAME      = TEME
TIME_SYSTEM    = UTC
MEAN_ELEMENT_THEORY = SGP/SGP4

EPOCH          = 2026-01-01T22:00:01.999584
MEAN_MOTION    = 15.52128362
ECCENTRICITY   = .00013184
INCLINATION    = 42.9994
RA_OF_ASC_NODE = 193.9352
ARG_OF_PERICENTER = 276.6173
MEAN_ANOMALY   = 84.7614

EPHEMERIS_TYPE = 0
CLASSIFICATION_TYPE = U
NORAD_CAT_ID   = 67109
ELEMENT_SET_NO = 999
REV_AT_EPOCH   = 394
BSTAR          = -.31788682E-1
MEAN_MOTION_DOT = -.1755109E-1
MEAN_MOTION_DDOT = 0

CCSDS_OMM_VERS = 2.0
CREATION_DATE  = 
ORIGINATOR     = 

OBJECT_NAME    = STARLINK-35781
OBJECT_ID      = 2025-299J
CENTER_NAME    = EARTH
REF_FRAME      = TEME
TIME_SYSTEM    = UTC
MEAN_ELEMENT_THEORY = SGP/SGP4

EPOCH          = 2026-01-01T22:00:01.999584
MEAN_MOTION    = 15.52145319
ECCENTRICITY   = .00013807
INCLINATION    = 42.9994
RA_OF_ASC_NODE = 193.9243
ARG_OF_PERICENTER = 267.4834
MEAN_ANOMALY   = 97.7154

EPHEMERIS_TYPE = 0
CLASSIFICATION_TYPE = U
NORAD_CAT_ID   = 67110
ELEMENT_SET_NO = 999
REV_AT_EPOCH   = 400
BSTAR          = -.32019744E-1
MEAN_MOTION_DOT = -.1767463E-1
MEAN_MOTION_DDOT = 0

CCSDS_OMM_VERS = 2.0
CREATION_DATE  = 
ORIGINATOR     = 

OBJECT_NAME    = STARLINK-35875
OBJECT_ID      = 2025-299K
CENTER_NAME    = EARTH
REF_FRAME      = TEME
TIME_SYSTEM    = UTC
MEAN_ELEMENT_THEORY = SGP/SGP4

EPOCH          = 2026-01-01T22:00:01.999584
MEAN_MOTION    = 15.52135284
ECCENTRICITY   = .0001278
INCLINATION    = 42.9994
RA_OF_ASC_NODE = 193.9301
ARG_OF_PERICENTER = 272.5820
MEAN_ANOMALY   = 90.7081

EPHEMERIS_TYPE = 0
CLASSIFICATION_TYPE = U
NORAD_CAT_ID   = 67111
ELEMENT_SET_NO = 999
REV_AT_EPOCH   = 394
BSTAR          = -.3191874E-1
MEAN_MOTION_DOT = -.1761874E-1
MEAN_MOTION_DDOT = 0

CCSDS_OMM_VERS = 2.0
CREATION_DATE  = 
ORIGINATOR     = 

OBJECT_NAME    = STARLINK-35906
OBJECT_ID      = 2025-299L
CENTER_NAME    = EARTH
REF_FRAME      = TEME
TIME_SYSTEM    = UTC
MEAN_ELEMENT_THEORY = SGP/SGP4

EPOCH          = 2026-01-01T22:00:01.999584
MEAN_MOTION    = 15.52168071
ECCENTRICITY   = .00014165
INCLINATION    = 42.9995
RA_OF_ASC_NODE = 193.9199
ARG_OF_PERICENTER = 270.8964
MEAN_ANOMALY   = 96.1967

EPHEMERIS_TYPE = 0
CLASSIFICATION_TYPE = U
NORAD_CAT_ID   = 67112
ELEMENT_SET_NO = 999
REV_AT_EPOCH   = 394
BSTAR          = -.32313773E-1
MEAN_MOTION_DOT = -.1783218E-1
MEAN_MOTION_DDOT = 0

CCSDS_OMM_VERS = 2.0
CREATION_DATE  = 
ORIGINATOR     = 

OBJECT_NAME    = STARLINK-35789
OBJECT_ID      = 2025-299M
CENTER_NAME    = EARTH
REF_FRAME      = TEME
TIME_SYSTEM    = UTC
MEAN_ELEMENT_THEORY = SGP/SGP4

EPOCH          = 2026-01-01T22:00:01.999584
MEAN_MOTION    = 15.52182922
ECCENTRICITY   = .00014338
INCLINATION    = 42.9995
RA_OF_ASC_NODE = 193.9148
ARG_OF_PERICENTER = 273.5352
MEAN_ANOMALY   = 95.4573

EPHEMERIS_TYPE = 0
CLASSIFICATION_TYPE = U
NORAD_CAT_ID   = 67113
ELEMENT_SET_NO = 999
REV_AT_EPOCH   = 394
BSTAR          = -.32458426E-1
MEAN_MOTION_DOT = -.1791176E-1
MEAN_MOTION_DDOT = 0

CCSDS_OMM_VERS = 2.0
CREATION_DATE  = 
ORIGINATOR     = 

OBJECT_NAME    = STARLINK-36180
OBJECT_ID      = 2025-299N
CENTER_NAME    = EARTH
REF_FRAME      = TEME
TIME_SYSTEM    = UTC
MEAN_ELEMENT_THEORY = SGP/SGP4

EPOCH          = 2026-01-01T22:00:01.999584
MEAN_MOTION    = 15.52189242
ECCENTRICITY   = .00013659
INCLINATION    = 42.9994
RA_OF_ASC_NODE = 193.9101
ARG_OF_PERICENTER = 269.3257
MEAN_ANOMALY   = 101.5796

EPHEMERIS_TYPE = 0
CLASSIFICATION_TYPE = U
NORAD_CAT_ID   = 67114
ELEMENT_SET_NO = 999
REV_AT_EPOCH   = 405
BSTAR          = -.32575755E-1
MEAN_MOTION_DOT = -.1797253E-1
MEAN_MOTION_DDOT = 0

CCSDS_OMM_VERS = 2.0
CREATION_DATE  = 
ORIGINATOR     = 

OBJECT_NAME    = STARLINK-35892
OBJECT_ID      = 2025-299P
CENTER_NAME    = EARTH
REF_FRAME      = TEME
TIME_SYSTEM    = UTC
MEAN_ELEMENT_THEORY = SGP/SGP4

EPOCH          = 2026-01-01T22:00:01.999584
MEAN_MOTION    = 15.52220047
ECCENTRICITY   = .00012488
INCLINATION    = 42.9995
RA_OF_ASC_NODE = 193.9053
ARG_OF_PERICENTER = 274.8297
MEAN_ANOMALY   = 97.9712

EPHEMERIS_TYPE = 0
CLASSIFICATION_TYPE = U
NORAD_CAT_ID   = 67115
ELEMENT_SET_NO = 999
REV_AT_EPOCH   = 394
BSTAR          = -.33400335E-1
MEAN_MOTION_DOT = -.1839264E-1
MEAN_MOTION_DDOT = 0

CCSDS_OMM_VERS = 2.0
CREATION_DATE  = 
ORIGINATOR     = 

OBJECT_NAME    = STARLINK-35738
OBJECT_ID      = 2025-299Q
CENTER_NAME    = EARTH
REF_FRAME      = TEME
TIME_SYSTEM    = UTC
MEAN_ELEMENT_THEORY = SGP/SGP4

EPOCH          = 2026-01-01T22:00:01.999584
MEAN_MOTION    = 15.52220770
ECCENTRICITY   = .00013379
INCLINATION    = 42.9993
RA_OF_ASC_NODE = 193.9008
ARG_OF_PERICENTER = 275.3443
MEAN_ANOMALY   = 99.3705

EPHEMERIS_TYPE = 0
CLASSIFICATION_TYPE = U
NORAD_CAT_ID   = 67116
ELEMENT_SET_NO = 999
REV_AT_EPOCH   = 394
BSTAR          = -.33366226E-1
MEAN_MOTION_DOT = -.1837697E-1
MEAN_MOTION_DDOT = 0

CCSDS_OMM_VERS = 2.0
CREATION_DATE  = 
ORIGINATOR     = 

OBJECT_NAME    = STARLINK-35674
OBJECT_ID      = 2025-299R
CENTER_NAME    = EARTH
REF_FRAME      = TEME
TIME_SYSTEM    = UTC
MEAN_ELEMENT_THEORY = SGP/SGP4

EPOCH          = 2026-01-01T22:00:01.999584
MEAN_MOTION    = 15.52219948
ECCENTRICITY   = .00013529
INCLINATION    = 42.9992
RA_OF_ASC_NODE = 193.8960
ARG_OF_PERICENTER = 271.8526
MEAN_ANOMALY   = 104.7720

EPHEMERIS_TYPE = 0
CLASSIFICATION_TYPE = U
NORAD_CAT_ID   = 67117
ELEMENT_SET_NO = 999
REV_AT_EPOCH   = 384
BSTAR          = -.32984154E-1
MEAN_MOTION_DOT = -.1819015E-1
MEAN_MOTION_DDOT = 0

CCSDS_OMM_VERS = 2.0
CREATION_DATE  = 
ORIGINATOR     = 

OBJECT_NAME    = STARLINK-35701
OBJECT_ID      = 2025-299S
CENTER_NAME    = EARTH
REF_FRAME      = TEME
TIME_SYSTEM    = UTC
MEAN_ELEMENT_THEORY = SGP/SGP4

EPOCH          = 2026-01-01T22:00:01.999584
MEAN_MOTION    = 15.52243801
ECCENTRICITY   = .00011873
INCLINATION    = 42.9994
RA_OF_ASC_NODE = 193.8918
ARG_OF_PERICENTER = 278.5902
MEAN_ANOMALY   = 99.9384

EPHEMERIS_TYPE = 0
CLASSIFICATION_TYPE = U
NORAD_CAT_ID   = 67118
ELEMENT_SET_NO = 999
REV_AT_EPOCH   = 400
BSTAR          = -.33772385E-1
MEAN_MOTION_DOT = -.1858744E-1
MEAN_MOTION_DDOT = 0

CCSDS_OMM_VERS = 2.0
CREATION_DATE  = 
ORIGINATOR     = 

OBJECT_NAME    = STARLINK-36179
OBJECT_ID      = 2025-299T
CENTER_NAME    = EARTH
REF_FRAME      = TEME
TIME_SYSTEM    = UTC
MEAN_ELEMENT_THEORY = SGP/SGP4

EPOCH          = 2026-01-01T22:00:01.999584
MEAN_MOTION    = 15.52285997
ECCENTRICITY   = .00016398
INCLINATION    = 42.9995
RA_OF_ASC_NODE = 193.8819
ARG_OF_PERICENTER = 275.2322
MEAN_ANOMALY   = 107.0759

EPHEMERIS_TYPE = 0
CLASSIFICATION_TYPE = U
NORAD_CAT_ID   = 67119
ELEMENT_SET_NO = 999
REV_AT_EPOCH   = 405
BSTAR          = -.33590481E-1
MEAN_MOTION_DOT = -.1852679E-1
MEAN_MOTION_DDOT = 0

